STARLINK-35762          
1 67172U 25303K   26016.58336806  .00052051  00000+0  12462-2 0  9999
2 67172  42.9988 248.4031 0001646 254.9956 216.7234 15.40666197  5773
STARLINK-36183          
1 67173U 25303L   26016.58336806  .00050102  00000+0  12000-2 0  9993
2 67173  42.9989 248.3425 0001602 260.5118 236.0860 15.40668956  6064
STARLINK-36210          
1 67174U 25303M   26016.58336806  .00051010  00000+0  12218-2 0  9994
2 67174  42.9991 248.3123 0001511 260.4295 248.5254 15.40661365  6069
STARLINK-35756          
1 67175U 25303N   26016.58336806  .00050901  00000+0  12189-2 0  9990
2 67175  42.9991 248.2521 0002350 255.7916 278.1290 15.40669024  5822
STARLINK-35785          
1 67176U 25303P   26016.58336806  .00052217  00000+0  12503-2 0  9993
2 67176  42.9991 248.2822 0001934 265.1106 256.3848 15.40661313  5774
STARLINK-35853          
1 67177U 25303Q   26016.58336806  .00048892  00000+0  11714-2 0  9991
2 67177  42.9990 248.2219 0001730 249.1661 297.1956 15.40669626  5820
STARLINK-35878          
1 67178U 25303R   26016.58336806  .00053103  00000+0  12711-2 0  9991
2 67178  42.9987 248.1607 0001382 255.5296 315.7203 15.40665933  5778
STARLINK-35793          
1 67179U 25303S   26016.58336806  .00053056  00000+0  12703-2 0  9990
2 67179  42.9989 248.1915 0001563 238.1482 320.6703 15.40658535  5778
STARLINK-35876          
1 67180U 25303T   26016.58336806  .00075111  00000+0  17875-2 0  9993
2 67180  42.9986 248.1316 0002324 281.2960 302.3076 15.40701891  5828
STARLINK-35766          
1 67181U 25303U   26016.58336806  .00080105  00000+0  19101-2 0  9997
2 67181  42.9984 248.1016 0002044 250.0449 346.0297 15.40615101  5771
STARLINK-35782          
1 67182U 25303V   26016.58336806  .00056063  00000+0  13410-2 0  9991
2 67182  42.9984 248.0705 0001701 259.6466 348.9189 15.40666485  5771
STARLINK-35719          
1 67183U 25303W   26016.58336806  .00059505  00000+0  14223-2 0  9999
2 67183  42.9990 248.0095 0001555 241.7324  31.7011 15.40665499  5778
