CCSDS_OMM_VERS = 2.0
CREATION_DATE  = 
ORIGINATOR     = 

OBJECT_NAME    = STARLINK-35762
OBJECT_ID      = 2025-303K
CENTER_NAME    = EARTH
REF_FRAME      = TEME
TIME_SYSTEM    = UTC
MEAN_ELEMENT_THEORY = SGP/SGP4

EPOCH          = 2026-01-16T14:00:03.000384
MEAN_MOTION    = 15.40666197
ECCENTRICITY   = .00016464
INCLINATION    = 42.9988
RA_OF_ASC_NODE = 248.4031
ARG_OF_PERICENTER = 254.9956
MEAN_ANOMALY   = 216.7234

EPHEMERIS_TYPE = 0
CLASSIFICATION_TYPE = U
NORAD_CAT_ID   = 67172
ELEMENT_SET_NO = 999
REV_AT_EPOCH   = 577
BSTAR          = .12462086E-2
MEAN_MOTION_DOT = .52051E-3
MEAN_MOTION_DDOT = 0

CCSDS_OMM_VERS = 2.0
CREATION_DATE  = 
ORIGINATOR     = 

OBJECT_NAME    = STARLINK-36183
OBJECT_ID      = 2025-303L
CENTER_NAME    = EARTH
REF_FRAME      = TEME
TIME_SYSTEM    = UTC
MEAN_ELEMENT_THEORY = SGP/SGP4

EPOCH          = 2026-01-16T14:00:03.000384
MEAN_MOTION    = 15.40668956
ECCENTRICITY   = .00016027
INCLINATION    = 42.9989
RA_OF_ASC_NODE = 248.3425
ARG_OF_PERICENTER = 260.5118
MEAN_ANOMALY   = 236.0860

EPHEMERIS_TYPE = 0
CLASSIFICATION_TYPE = U
NORAD_CAT_ID   = 67173
ELEMENT_SET_NO = 999
REV_AT_EPOCH   = 606
BSTAR          = .12000056E-2
MEAN_MOTION_DOT = .50102E-3
MEAN_MOTION_DDOT = 0

CCSDS_OMM_VERS = 2.0
CREATION_DATE  = 
ORIGINATOR     = 

OBJECT_NAME    = STARLINK-36210
OBJECT_ID      = 2025-303M
CENTER_NAME    = EARTH
REF_FRAME      = TEME
TIME_SYSTEM    = UTC
MEAN_ELEMENT_THEORY = SGP/SGP4

EPOCH          = 2026-01-16T14:00:03.000384
MEAN_MOTION    = 15.40661365
ECCENTRICITY   = .00015116
INCLINATION    = 42.9991
RA_OF_ASC_NODE = 248.3123
ARG_OF_PERICENTER = 260.4295
MEAN_ANOMALY   = 248.5254

EPHEMERIS_TYPE = 0
CLASSIFICATION_TYPE = U
NORAD_CAT_ID   = 67174
ELEMENT_SET_NO = 999
REV_AT_EPOCH   = 606
BSTAR          = .12217962E-2
MEAN_MOTION_DOT = .5101E-3
MEAN_MOTION_DDOT = 0

CCSDS_OMM_VERS = 2.0
CREATION_DATE  = 
ORIGINATOR     = 

OBJECT_NAME    = STARLINK-35756
OBJECT_ID      = 2025-303N
CENTER_NAME    = EARTH
REF_FRAME      = TEME
TIME_SYSTEM    = UTC
MEAN_ELEMENT_THEORY = SGP/SGP4

EPOCH          = 2026-01-16T14:00:03.000384
MEAN_MOTION    = 15.40669024
ECCENTRICITY   = .00023509
INCLINATION    = 42.9991
RA_OF_ASC_NODE = 248.2521
ARG_OF_PERICENTER = 255.7916
MEAN_ANOMALY   = 278.1290

EPHEMERIS_TYPE = 0
CLASSIFICATION_TYPE = U
NORAD_CAT_ID   = 67175
ELEMENT_SET_NO = 999
REV_AT_EPOCH   = 582
BSTAR          = .12188517E-2
MEAN_MOTION_DOT = .50901E-3
MEAN_MOTION_DDOT = 0

CCSDS_OMM_VERS = 2.0
CREATION_DATE  = 
ORIGINATOR     = 

OBJECT_NAME    = STARLINK-35785
OBJECT_ID      = 2025-303P
CENTER_NAME    = EARTH
REF_FRAME      = TEME
TIME_SYSTEM    = UTC
MEAN_ELEMENT_THEORY = SGP/SGP4

EPOCH          = 2026-01-16T14:00:03.000384
MEAN_MOTION    = 15.40661313
ECCENTRICITY   = .00019347
INCLINATION    = 42.9991
RA_OF_ASC_NODE = 248.2822
ARG_OF_PERICENTER = 265.1106
MEAN_ANOMALY   = 256.3848

EPHEMERIS_TYPE = 0
CLASSIFICATION_TYPE = U
NORAD_CAT_ID   = 67176
ELEMENT_SET_NO = 999
REV_AT_EPOCH   = 577
BSTAR          = .12503119E-2
MEAN_MOTION_DOT = .52217E-3
MEAN_MOTION_DDOT = 0

CCSDS_OMM_VERS = 2.0
CREATION_DATE  = 
ORIGINATOR     = 

OBJECT_NAME    = STARLINK-35853
OBJECT_ID      = 2025-303Q
CENTER_NAME    = EARTH
REF_FRAME      = TEME
TIME_SYSTEM    = UTC
MEAN_ELEMENT_THEORY = SGP/SGP4

EPOCH          = 2026-01-16T14:00:03.000384
MEAN_MOTION    = 15.40669626
ECCENTRICITY   = .00017307
INCLINATION    = 42.9990
RA_OF_ASC_NODE = 248.2219
ARG_OF_PERICENTER = 249.1661
MEAN_ANOMALY   = 297.1956

EPHEMERIS_TYPE = 0
CLASSIFICATION_TYPE = U
NORAD_CAT_ID   = 67177
ELEMENT_SET_NO = 999
REV_AT_EPOCH   = 582
BSTAR          = .1171353E-2
MEAN_MOTION_DOT = .48892E-3
MEAN_MOTION_DDOT = 0

CCSDS_OMM_VERS = 2.0
CREATION_DATE  = 
ORIGINATOR     = 

OBJECT_NAME    = STARLINK-35878
OBJECT_ID      = 2025-303R
CENTER_NAME    = EARTH
REF_FRAME      = TEME
TIME_SYSTEM    = UTC
MEAN_ELEMENT_THEORY = SGP/SGP4

EPOCH          = 2026-01-16T14:00:03.000384
MEAN_MOTION    = 15.40665933
ECCENTRICITY   = .00013826
INCLINATION    = 42.9987
RA_OF_ASC_NODE = 248.1607
ARG_OF_PERICENTER = 255.5296
MEAN_ANOMALY   = 315.7203

EPHEMERIS_TYPE = 0
CLASSIFICATION_TYPE = U
NORAD_CAT_ID   = 67178
ELEMENT_SET_NO = 999
REV_AT_EPOCH   = 577
BSTAR          = .1271081E-2
MEAN_MOTION_DOT = .53103E-3
MEAN_MOTION_DDOT = 0

CCSDS_OMM_VERS = 2.0
CREATION_DATE  = 
ORIGINATOR     = 

OBJECT_NAME    = STARLINK-35793
OBJECT_ID      = 2025-303S
CENTER_NAME    = EARTH
REF_FRAME      = TEME
TIME_SYSTEM    = UTC
MEAN_ELEMENT_THEORY = SGP/SGP4

EPOCH          = 2026-01-16T14:00:03.000384
MEAN_MOTION    = 15.40658535
ECCENTRICITY   = .00015634
INCLINATION    = 42.9989
RA_OF_ASC_NODE = 248.1915
ARG_OF_PERICENTER = 238.1482
MEAN_ANOMALY   = 320.6703

EPHEMERIS_TYPE = 0
CLASSIFICATION_TYPE = U
NORAD_CAT_ID   = 67179
ELEMENT_SET_NO = 999
REV_AT_EPOCH   = 577
BSTAR          = .12702706E-2
MEAN_MOTION_DOT = .53056E-3
MEAN_MOTION_DDOT = 0

CCSDS_OMM_VERS = 2.0
CREATION_DATE  = 
ORIGINATOR     = 

OBJECT_NAME    = STARLINK-35876
OBJECT_ID      = 2025-303T
CENTER_NAME    = EARTH
REF_FRAME      = TEME
TIME_SYSTEM    = UTC
MEAN_ELEMENT_THEORY = SGP/SGP4

EPOCH          = 2026-01-16T14:00:03.000384
MEAN_MOTION    = 15.40701891
ECCENTRICITY   = .00023245
INCLINATION    = 42.9986
RA_OF_ASC_NODE = 248.1316
ARG_OF_PERICENTER = 281.2960
MEAN_ANOMALY   = 302.3076

EPHEMERIS_TYPE = 0
CLASSIFICATION_TYPE = U
NORAD_CAT_ID   = 67180
ELEMENT_SET_NO = 999
REV_AT_EPOCH   = 582
BSTAR          = .17875108E-2
MEAN_MOTION_DOT = .75111E-3
MEAN_MOTION_DDOT = 0

CCSDS_OMM_VERS = 2.0
CREATION_DATE  = 
ORIGINATOR     = 

OBJECT_NAME    = STARLINK-35766
OBJECT_ID      = 2025-303U
CENTER_NAME    = EARTH
REF_FRAME      = TEME
TIME_SYSTEM    = UTC
MEAN_ELEMENT_THEORY = SGP/SGP4

EPOCH          = 2026-01-16T14:00:03.000384
MEAN_MOTION    = 15.40615101
ECCENTRICITY   = .00020449
INCLINATION    = 42.9984
RA_OF_ASC_NODE = 248.1016
ARG_OF_PERICENTER = 250.0449
MEAN_ANOMALY   = 346.0297

EPHEMERIS_TYPE = 0
CLASSIFICATION_TYPE = U
NORAD_CAT_ID   = 67181
ELEMENT_SET_NO = 999
REV_AT_EPOCH   = 577
BSTAR          = .19101477E-2
MEAN_MOTION_DOT = .80105E-3
MEAN_MOTION_DDOT = 0

CCSDS_OMM_VERS = 2.0
CREATION_DATE  = 
ORIGINATOR     = 

OBJECT_NAME    = STARLINK-35782
OBJECT_ID      = 2025-303V
CENTER_NAME    = EARTH
REF_FRAME      = TEME
TIME_SYSTEM    = UTC
MEAN_ELEMENT_THEORY = SGP/SGP4

EPOCH          = 2026-01-16T14:00:03.000384
MEAN_MOTION    = 15.40666485
ECCENTRICITY   = .00017011
INCLINATION    = 42.9984
RA_OF_ASC_NODE = 248.0705
ARG_OF_PERICENTER = 259.6466
MEAN_ANOMALY   = 348.9189

EPHEMERIS_TYPE = 0
CLASSIFICATION_TYPE = U
NORAD_CAT_ID   = 67182
ELEMENT_SET_NO = 999
REV_AT_EPOCH   = 577
BSTAR          = .13409694E-2
MEAN_MOTION_DOT = .56063E-3
MEAN_MOTION_DDOT = 0

CCSDS_OMM_VERS = 2.0
CREATION_DATE  = 
ORIGINATOR     = 

OBJECT_NAME    = STARLINK-35719
OBJECT_ID      = 2025-303W
CENTER_NAME    = EARTH
REF_FRAME      = TEME
TIME_SYSTEM    = UTC
MEAN_ELEMENT_THEORY = SGP/SGP4

EPOCH          = 2026-01-16T14:00:03.000384
MEAN_MOTION    = 15.40665499
ECCENTRICITY   = .00015554
INCLINATION    = 42.9990
RA_OF_ASC_NODE = 248.0095
ARG_OF_PERICENTER = 241.7324
MEAN_ANOMALY   = 31.7011

EPHEMERIS_TYPE = 0
CLASSIFICATION_TYPE = U
NORAD_CAT_ID   = 67183
ELEMENT_SET_NO = 999
REV_AT_EPOCH   = 577
BSTAR          = .14222792E-2
MEAN_MOTION_DOT = .59505E-3
MEAN_MOTION_DDOT = 0

